ORBCOMM FM24            
1 25478U 98053D   25044.70233723  .00002186  00000+0  76944-3 0  9992
2 25478  45.0072 134.3798 0002977 276.0814  83.9695 14.37539079379674
ORBCOMM FM25            
1 25479U 98053E   25045.50559792  .00002193  00000+0  77222-3 0  9997
2 25479  45.0064 128.8315 0004192 315.4437  44.6074 14.37525226380080
ORBCOMM FM26            
1 25480U 98053F   25044.74426679  .00001690  00000+0  61637-3 0  9995
2 25480  45.0065 128.0403 0005088 343.7470  16.3214 14.36662786379890
ORBCOMM FM27            
1 25481U 98053G   25045.21701611  .00002097  00000+0  74042-3 0  9997
2 25481  45.0047 130.4379 0002348 248.7636 111.2961 14.37530673380014
ORBCOMM FM28            
1 25482U 98053H   25044.57853951  .00001745  00000+0  62083-3 0  9992
2 25482  45.0060  71.1689 0003682   1.3351 358.7506 14.37780101380560
ORBCOMM FM30            
1 25980U 99065A   25045.44327239  .00001710  00000+0  62122-3 0  9997
2 25980  45.0326 310.5258 0006000 103.5446 256.6071 14.36824779317323
ORBCOMM FM31            
1 25981U 99065B   25044.99519513  .00001512  00000+0  55519-3 0  9997
2 25981  45.0238 306.1765 0003136 122.6698 237.4453 14.36788187317253
ORBCOMM FM32            
1 25982U 99065C   25044.88978746  .00001725  00000+0  63885-3 0  9994
2 25982  45.0169 322.4193 0004831 124.2050 235.9256 14.35828154316875
