<?xml version="1.0" encoding="UTF-8"?>
<ndm xmlns:xsi="http://www.w3.org/2001/XMLSchema-instance" xsi:noNamespaceSchemaLocation="https://sanaregistry.org/r/ndmxml_unqualified/ndmxml-2.0.0-master-2.0.xsd">
<omm id="CCSDS_OMM_VERS" version="2.0">
<header><CREATION_DATE/><ORIGINATOR/></header><body><segment><metadata><OBJECT_NAME>ORBCOMM FM24</OBJECT_NAME><OBJECT_ID>1998-053D</OBJECT_ID><CENTER_NAME>EARTH</CENTER_NAME><REF_FRAME>TEME</REF_FRAME><TIME_SYSTEM>UTC</TIME_SYSTEM><MEAN_ELEMENT_THEORY>SGP4</MEAN_ELEMENT_THEORY></metadata><data><meanElements><EPOCH>2025-02-13T16:51:21.936672</EPOCH><MEAN_MOTION>14.37539079</MEAN_MOTION><ECCENTRICITY>.0002977</ECCENTRICITY><INCLINATION>45.0072</INCLINATION><RA_OF_ASC_NODE>134.3798</RA_OF_ASC_NODE><ARG_OF_PERICENTER>276.0814</ARG_OF_PERICENTER><MEAN_ANOMALY>83.9695</MEAN_ANOMALY></meanElements><tleParameters><EPHEMERIS_TYPE>0</EPHEMERIS_TYPE><CLASSIFICATION_TYPE>U</CLASSIFICATION_TYPE><NORAD_CAT_ID>25478</NORAD_CAT_ID><ELEMENT_SET_NO>999</ELEMENT_SET_NO><REV_AT_EPOCH>37967</REV_AT_EPOCH><BSTAR>.76944E-3</BSTAR><MEAN_MOTION_DOT>.2186E-4</MEAN_MOTION_DOT><MEAN_MOTION_DDOT>0</MEAN_MOTION_DDOT></tleParameters></data></segment></body></omm>
<omm id="CCSDS_OMM_VERS" version="2.0">
<header><CREATION_DATE/><ORIGINATOR/></header><body><segment><metadata><OBJECT_NAME>ORBCOMM FM25</OBJECT_NAME><OBJECT_ID>1998-053E</OBJECT_ID><CENTER_NAME>EARTH</CENTER_NAME><REF_FRAME>TEME</REF_FRAME><TIME_SYSTEM>UTC</TIME_SYSTEM><MEAN_ELEMENT_THEORY>SGP4</MEAN_ELEMENT_THEORY></metadata><data><meanElements><EPOCH>2025-02-14T12:08:03.660288</EPOCH><MEAN_MOTION>14.37525226</MEAN_MOTION><ECCENTRICITY>.0004192</ECCENTRICITY><INCLINATION>45.0064</INCLINATION><RA_OF_ASC_NODE>128.8315</RA_OF_ASC_NODE><ARG_OF_PERICENTER>315.4437</ARG_OF_PERICENTER><MEAN_ANOMALY>44.6074</MEAN_ANOMALY></meanElements><tleParameters><EPHEMERIS_TYPE>0</EPHEMERIS_TYPE><CLASSIFICATION_TYPE>U</CLASSIFICATION_TYPE><NORAD_CAT_ID>25479</NORAD_CAT_ID><ELEMENT_SET_NO>999</ELEMENT_SET_NO><REV_AT_EPOCH>38008</REV_AT_EPOCH><BSTAR>.77222E-3</BSTAR><MEAN_MOTION_DOT>.2193E-4</MEAN_MOTION_DOT><MEAN_MOTION_DDOT>0</MEAN_MOTION_DDOT></tleParameters></data></segment></body></omm>
<omm id="CCSDS_OMM_VERS" version="2.0">
<header><CREATION_DATE/><ORIGINATOR/></header><body><segment><metadata><OBJECT_NAME>ORBCOMM FM26</OBJECT_NAME><OBJECT_ID>1998-053F</OBJECT_ID><CENTER_NAME>EARTH</CENTER_NAME><REF_FRAME>TEME</REF_FRAME><TIME_SYSTEM>UTC</TIME_SYSTEM><MEAN_ELEMENT_THEORY>SGP4</MEAN_ELEMENT_THEORY></metadata><data><meanElements><EPOCH>2025-02-13T17:51:44.650656</EPOCH><MEAN_MOTION>14.36662786</MEAN_MOTION><ECCENTRICITY>.0005088</ECCENTRICITY><INCLINATION>45.0065</INCLINATION><RA_OF_ASC_NODE>128.0403</RA_OF_ASC_NODE><ARG_OF_PERICENTER>343.7470</ARG_OF_PERICENTER><MEAN_ANOMALY>16.3214</MEAN_ANOMALY></meanElements><tleParameters><EPHEMERIS_TYPE>0</EPHEMERIS_TYPE><CLASSIFICATION_TYPE>U</CLASSIFICATION_TYPE><NORAD_CAT_ID>25480</NORAD_CAT_ID><ELEMENT_SET_NO>999</ELEMENT_SET_NO><REV_AT_EPOCH>37989</REV_AT_EPOCH><BSTAR>.61637E-3</BSTAR><MEAN_MOTION_DOT>.169E-4</MEAN_MOTION_DOT><MEAN_MOTION_DDOT>0</MEAN_MOTION_DDOT></tleParameters></data></segment></body></omm>
<omm id="CCSDS_OMM_VERS" version="2.0">
<header><CREATION_DATE/><ORIGINATOR/></header><body><segment><metadata><OBJECT_NAME>ORBCOMM FM27</OBJECT_NAME><OBJECT_ID>1998-053G</OBJECT_ID><CENTER_NAME>EARTH</CENTER_NAME><REF_FRAME>TEME</REF_FRAME><TIME_SYSTEM>UTC</TIME_SYSTEM><MEAN_ELEMENT_THEORY>SGP4</MEAN_ELEMENT_THEORY></metadata><data><meanElements><EPOCH>2025-02-14T05:12:30.191904</EPOCH><MEAN_MOTION>14.37530673</MEAN_MOTION><ECCENTRICITY>.0002348</ECCENTRICITY><INCLINATION>45.0047</INCLINATION><RA_OF_ASC_NODE>130.4379</RA_OF_ASC_NODE><ARG_OF_PERICENTER>248.7636</ARG_OF_PERICENTER><MEAN_ANOMALY>111.2961</MEAN_ANOMALY></meanElements><tleParameters><EPHEMERIS_TYPE>0</EPHEMERIS_TYPE><CLASSIFICATION_TYPE>U</CLASSIFICATION_TYPE><NORAD_CAT_ID>25481</NORAD_CAT_ID><ELEMENT_SET_NO>999</ELEMENT_SET_NO><REV_AT_EPOCH>38001</REV_AT_EPOCH><BSTAR>.74042E-3</BSTAR><MEAN_MOTION_DOT>.2097E-4</MEAN_MOTION_DOT><MEAN_MOTION_DDOT>0</MEAN_MOTION_DDOT></tleParameters></data></segment></body></omm>
<omm id="CCSDS_OMM_VERS" version="2.0">
<header><CREATION_DATE/><ORIGINATOR/></header><body><segment><metadata><OBJECT_NAME>ORBCOMM FM28</OBJECT_NAME><OBJECT_ID>1998-053H</OBJECT_ID><CENTER_NAME>EARTH</CENTER_NAME><REF_FRAME>TEME</REF_FRAME><TIME_SYSTEM>UTC</TIME_SYSTEM><MEAN_ELEMENT_THEORY>SGP4</MEAN_ELEMENT_THEORY></metadata><data><meanElements><EPOCH>2025-02-13T13:53:05.813664</EPOCH><MEAN_MOTION>14.37780101</MEAN_MOTION><ECCENTRICITY>.0003682</ECCENTRICITY><INCLINATION>45.0060</INCLINATION><RA_OF_ASC_NODE>71.1689</RA_OF_ASC_NODE><ARG_OF_PERICENTER>1.3351</ARG_OF_PERICENTER><MEAN_ANOMALY>358.7506</MEAN_ANOMALY></meanElements><tleParameters><EPHEMERIS_TYPE>0</EPHEMERIS_TYPE><CLASSIFICATION_TYPE>U</CLASSIFICATION_TYPE><NORAD_CAT_ID>25482</NORAD_CAT_ID><ELEMENT_SET_NO>999</ELEMENT_SET_NO><REV_AT_EPOCH>38056</REV_AT_EPOCH><BSTAR>.62083E-3</BSTAR><MEAN_MOTION_DOT>.1745E-4</MEAN_MOTION_DOT><MEAN_MOTION_DDOT>0</MEAN_MOTION_DDOT></tleParameters></data></segment></body></omm>
<omm id="CCSDS_OMM_VERS" version="2.0">
<header><CREATION_DATE/><ORIGINATOR/></header><body><segment><metadata><OBJECT_NAME>ORBCOMM FM30</OBJECT_NAME><OBJECT_ID>1999-065A</OBJECT_ID><CENTER_NAME>EARTH</CENTER_NAME><REF_FRAME>TEME</REF_FRAME><TIME_SYSTEM>UTC</TIME_SYSTEM><MEAN_ELEMENT_THEORY>SGP4</MEAN_ELEMENT_THEORY></metadata><data><meanElements><EPOCH>2025-02-14T10:38:18.734496</EPOCH><MEAN_MOTION>14.36824779</MEAN_MOTION><ECCENTRICITY>.0006</ECCENTRICITY><INCLINATION>45.0326</INCLINATION><RA_OF_ASC_NODE>310.5258</RA_OF_ASC_NODE><ARG_OF_PERICENTER>103.5446</ARG_OF_PERICENTER><MEAN_ANOMALY>256.6071</MEAN_ANOMALY></meanElements><tleParameters><EPHEMERIS_TYPE>0</EPHEMERIS_TYPE><CLASSIFICATION_TYPE>U</CLASSIFICATION_TYPE><NORAD_CAT_ID>25980</NORAD_CAT_ID><ELEMENT_SET_NO>999</ELEMENT_SET_NO><REV_AT_EPOCH>31732</REV_AT_EPOCH><BSTAR>.62122E-3</BSTAR><MEAN_MOTION_DOT>.171E-4</MEAN_MOTION_DOT><MEAN_MOTION_DDOT>0</MEAN_MOTION_DDOT></tleParameters></data></segment></body></omm>
<omm id="CCSDS_OMM_VERS" version="2.0">
<header><CREATION_DATE/><ORIGINATOR/></header><body><segment><metadata><OBJECT_NAME>ORBCOMM FM31</OBJECT_NAME><OBJECT_ID>1999-065B</OBJECT_ID><CENTER_NAME>EARTH</CENTER_NAME><REF_FRAME>TEME</REF_FRAME><TIME_SYSTEM>UTC</TIME_SYSTEM><MEAN_ELEMENT_THEORY>SGP4</MEAN_ELEMENT_THEORY></metadata><data><meanElements><EPOCH>2025-02-13T23:53:04.859232</EPOCH><MEAN_MOTION>14.36788187</MEAN_MOTION><ECCENTRICITY>.0003136</ECCENTRICITY><INCLINATION>45.0238</INCLINATION><RA_OF_ASC_NODE>306.1765</RA_OF_ASC_NODE><ARG_OF_PERICENTER>122.6698</ARG_OF_PERICENTER><MEAN_ANOMALY>237.4453</MEAN_ANOMALY></meanElements><tleParameters><EPHEMERIS_TYPE>0</EPHEMERIS_TYPE><CLASSIFICATION_TYPE>U</CLASSIFICATION_TYPE><NORAD_CAT_ID>25981</NORAD_CAT_ID><ELEMENT_SET_NO>999</ELEMENT_SET_NO><REV_AT_EPOCH>31725</REV_AT_EPOCH><BSTAR>.55519E-3</BSTAR><MEAN_MOTION_DOT>.1512E-4</MEAN_MOTION_DOT><MEAN_MOTION_DDOT>0</MEAN_MOTION_DDOT></tleParameters></data></segment></body></omm>
<omm id="CCSDS_OMM_VERS" version="2.0">
<header><CREATION_DATE/><ORIGINATOR/></header><body><segment><metadata><OBJECT_NAME>ORBCOMM FM32</OBJECT_NAME><OBJECT_ID>1999-065C</OBJECT_ID><CENTER_NAME>EARTH</CENTER_NAME><REF_FRAME>TEME</REF_FRAME><TIME_SYSTEM>UTC</TIME_SYSTEM><MEAN_ELEMENT_THEORY>SGP4</MEAN_ELEMENT_THEORY></metadata><data><meanElements><EPOCH>2025-02-13T21:21:17.636544</EPOCH><MEAN_MOTION>14.35828154</MEAN_MOTION><ECCENTRICITY>.0004831</ECCENTRICITY><INCLINATION>45.0169</INCLINATION><RA_OF_ASC_NODE>322.4193</RA_OF_ASC_NODE><ARG_OF_PERICENTER>124.2050</ARG_OF_PERICENTER><MEAN_ANOMALY>235.9256</MEAN_ANOMALY></meanElements><tleParameters><EPHEMERIS_TYPE>0</EPHEMERIS_TYPE><CLASSIFICATION_TYPE>U</CLASSIFICATION_TYPE><NORAD_CAT_ID>25982</NORAD_CAT_ID><ELEMENT_SET_NO>999</ELEMENT_SET_NO><REV_AT_EPOCH>31687</REV_AT_EPOCH><BSTAR>.63885E-3</BSTAR><MEAN_MOTION_DOT>.1725E-4</MEAN_MOTION_DOT><MEAN_MOTION_DDOT>0</MEAN_MOTION_DDOT></tleParameters></data></segment></body></omm>

</ndm>
